NORAD_CAT_ID,OBJECT_NAME,OBJECT_TYPE,EPOCH,MEAN_MOTION,ECCENTRICITY,INCLINATION,RA_OF_ASC_NODE,ARG_OF_PERICENTER,MEAN_ANOMALY,BSTAR,MEAN_MOTION_DOT,MEAN_MOTION_DDOT,TLE_LINE0,TLE_LINE1,TLE_LINE2,SEMIMAJOR_AXIS,PERIOD,APOGEE,PERIGEE,DECAYED
56781.0,STARLINK-5989,PAYLOAD,2024-05-29 05:12:48,14.98329483,0.000306,69.9987,182.0825,267.7461,92.3348,-2.7385e-06,-1.26e-06,0.0,0 STARLINK-5989,1 56781U 23078Q   24150.21722647 -.00000126  00000-0 -27385-5 0  9991,2 56781  69.9987 182.0825 0003060 267.7461  92.3348 14.98329483 55656,6950.194,96.107,574.186,569.933,0.0
56781.0,STARLINK-5989,PAYLOAD,2024-05-29 11:37:20,14.9832986,0.0003095,69.9986,181.4091,269.255,90.8254,-1.0117e-06,-1.05e-06,0.0,0 STARLINK-5989,1 56781U 23078Q   24150.48426626 -.00000105  00000-0 -10117-5 0  9990,2 56781  69.9986 181.4091 0003095 269.2550  90.8254 14.98329860 55431,6950.193,96.107,574.209,569.907,0.0
56781.0,STARLINK-5989,PAYLOAD,2024-05-30 05:14:49,14.98331702,0.0003155,69.9983,179.5573,268.264,91.8157,3.3241e-06,-5.3e-07,0.0,0 STARLINK-5989,1 56781U 23078Q   24151.21862430 -.00000053  00000-0  33241-5 0  9993,2 56781  69.9983 179.5573 0003155 268.2640  91.8157 14.98331702 55809,6950.188,96.107,574.245,569.86,0.0
56781.0,STARLINK-5989,PAYLOAD,2024-05-30 11:39:21,14.98332452,0.0003142,69.9984,178.8842,268.0977,91.9822,1.3303e-05,6.6e-07,0.0,0 STARLINK-5989,1 56781U 23078Q   24151.48566324  .00000066  00000-0  13303-4 0  9994,2 56781  69.9984 178.8842 0003142 268.0977  91.9822 14.98332452 55586,6950.185,96.107,574.234,569.867,0.0
56781.0,STARLINK-5989,PAYLOAD,2024-05-31 05:16:50,14.98329912,0.0003133,69.9983,177.0326,268.1872,91.8928,5.723e-06,-2.5e-07,0.0,0 STARLINK-5989,1 56781U 23078Q   24152.22002435 -.00000025  00000-0  57230-5 0  9999,2 56781  69.9983 177.0326 0003133 268.1872  91.8928 14.98329912 55952,6950.193,96.107,574.236,569.881,0.0
56781.0,STARLINK-5989,PAYLOAD,2024-05-31 11:41:22,14.98330521,0.0003133,69.9983,176.359,268.8028,91.2772,1.2377e-05,5.5e-07,0.0,0 STARLINK-5989,1 56781U 23078Q   24152.48706372  .00000055  00000-0  12377-4 0  9992,2 56781  69.9983 176.3590 0003133 268.8028  91.2772 14.98330521 55732,6950.191,96.107,574.234,569.879,0.0
56781.0,STARLINK-5989,PAYLOAD,2024-06-01 11:43:23,14.9833093,0.0003118,69.9982,173.834,269.0536,91.0266,-7.0929e-06,-1.78e-06,0.0,0 STARLINK-5989,1 56781U 23078Q   24153.48846320 -.00000178  00000-0 -70929-5 0  9997,2 56781  69.9982 173.8340 0003118 269.0536  91.0266 14.98330930 56142,6950.19,96.107,574.222,569.888,0.0
56781.0,STARLINK-5989,PAYLOAD,2024-06-02 10:09:15,14.98349592,0.0003217,69.9982,171.4773,269.133,90.946,-0.00036627,-4.463e-05,0.0,0 STARLINK-5989,1 56781U 23078Q   24154.42310003 -.00004463  00000-0 -36627-3 0  9992,2 56781  69.9982 171.4773 0003217 269.1330  90.9460 14.98349592 56024,6950.132,96.106,574.233,569.761,0.0
56781.0,STARLINK-5989,PAYLOAD,2024-06-03 03:46:44,14.98330226,0.0003029,69.9983,169.6261,265.2909,94.7904,1.429e-05,7.7e-07,0.0,0 STARLINK-5989,1 56781U 23078Q   24155.15746279  .00000077  00000-0  14290-4 0  9999,2 56781  69.9983 169.6261 0003029 265.2909  94.7904 14.98330226 56395,6950.192,96.107,574.162,569.952,0.0
56781.0,STARLINK-5989,PAYLOAD,2024-06-03 10:11:16,14.98330448,0.0003179,69.9983,168.9526,270.6387,89.4407,3.2511e-05,2.95e-06,0.0,0 STARLINK-5989,1 56781U 23078Q   24155.42450203  .00000295  00000-0  32511-4 0  9996,2 56781  69.9983 168.9526 0003179 270.6387  89.4407 14.98330448 56178,6950.192,96.107,574.266,569.847,0.0
56781.0,STARLINK-5989,PAYLOAD,2024-06-03 18:11:57,14.98330441,0.0003136,69.9983,168.111,269.6084,90.4715,3.4402e-05,3.17e-06,0.0,0 STARLINK-5989,1 56781U 23078Q   24155.75830167  .00000317  00000-0  34402-4 0  9999,2 56781  69.9983 168.1110 0003136 269.6084  90.4715 14.98330441 56227,6950.192,96.107,574.236,569.877,0.0
56781.0,STARLINK-5989,PAYLOAD,2024-06-04 03:48:45,14.98329518,0.000319,69.9982,167.1011,270.3343,89.745,2.0549e-05,1.52e-06,0.0,0 STARLINK-5989,1 56781U 23078Q   24156.15886227  .00000152  00000-0  20549-4 0  9996,2 56781  69.9982 167.1011 0003190 270.3343  89.7450 14.98329518 56547,6950.194,96.107,574.276,569.842,0.0
56781.0,STARLINK-5989,PAYLOAD,2024-06-04 10:13:17,14.98331545,0.0003178,69.9982,166.4278,270.3554,89.7241,3.6347e-05,3.41e-06,0.0,0 STARLINK-5989,1 56781U 23078Q   24156.42590037  .00000341  00000-0  36347-4 0  9990,2 56781  69.9982 166.4278 0003178 270.3554  89.7241 14.98331545 56321,6950.188,96.107,574.262,569.844,0.0
56781.0,STARLINK-5989,PAYLOAD,2024-06-04 18:13:58,14.98330869,0.0003167,69.9982,165.5862,270.3375,89.7421,1.218e-05,5.2e-07,0.0,0 STARLINK-5989,1 56781U 23078Q   24156.75970109  .00000052  00000-0  12180-4 0  9996,2 56781  69.9982 165.5862 0003167 270.3375  89.7421 14.98330869 56372,6950.19,96.107,574.256,569.854,0.0
56781.0,STARLINK-5989,PAYLOAD,2024-06-05 03:50:46,14.9833076,0.0003176,69.9982,164.5761,270.0147,90.0648,-6.6016e-06,-1.72e-06,0.0,0 STARLINK-5989,1 56781U 23078Q   24157.16026119 -.00000172  00000-0 -66016-5 0  9998,2 56781  69.9982 164.5761 0003176 270.0147  90.0648 14.98330760 56694,6950.191,96.107,574.263,569.848,0.0
56781.0,STARLINK-5989,PAYLOAD,2024-06-05 10:15:18,14.98331834,0.0003172,69.9982,163.9028,270.0035,90.076,5.7846e-06,-2.4e-07,0.0,0 STARLINK-5989,1 56781U 23078Q   24157.42729984 -.00000024  00000-0  57846-5 0  9993,2 56781  69.9982 163.9028 0003172 270.0035  90.0760 14.98331834 56479,6950.187,96.107,574.257,569.848,0.0
56781.0,STARLINK-5989,PAYLOAD,2024-06-05 23:04:23,14.98329748,0.0003149,69.9982,162.5562,269.8267,90.2532,-2.7978e-06,-1.26e-06,0.0,0 STARLINK-5989,1 56781U 23078Q   24157.96138082 -.00000126  00000-0 -27978-5 0  9992,2 56781  69.9982 162.5562 0003149 269.8267  90.2532 14.98329748 56553,6950.194,96.107,574.247,569.87,0.0
56781.0,STARLINK-5989,PAYLOAD,2024-06-06 03:52:47,14.98328558,0.0003151,69.9983,162.0512,269.6815,90.3983,-1.4952e-05,-2.71e-06,0.0,0 STARLINK-5989,1 56781U 23078Q   24158.16166190 -.00000271  00000-0 -14952-4 0  9994,2 56781  69.9983 162.0512 0003151 269.6815  90.3983 14.98328558 56845,6950.197,96.107,574.252,569.872,0.0
56781.0,STARLINK-5989,PAYLOAD,2024-06-06 10:17:19,14.98329837,0.0003133,69.9983,161.3777,269.4174,90.6626,-1.0475e-05,-2.18e-06,0.0,0 STARLINK-5989,1 56781U 23078Q   24158.42870099 -.00000218  00000-0 -10475-4 0  9990,2 56781  69.9983 161.3777 0003133 269.4174  90.6626 14.98329837 56620,6950.193,96.107,574.236,569.881,0.0
56781.0,STARLINK-5989,PAYLOAD,2024-06-07 08:43:12,14.98328631,0.0003056,69.9986,159.0214,269.1558,90.9251,2.8221e-05,2.44e-06,0.0,0 STARLINK-5989,1 56781U 23078Q   24159.36334053  .00000244  00000-0  28221-4 0  9994,2 56781  69.9986 159.0214 0003056 269.1558  90.9251 14.98328631 57023,6950.197,96.107,574.186,569.938,0.0
56781.0,STARLINK-5989,PAYLOAD,2024-06-07 23:08:25,14.98331725,0.0003034,69.9989,157.5064,270.4066,89.6745,-4.5609e-06,-1.47e-06,0.0,0 STARLINK-5989,1 56781U 23078Q   24159.96417928 -.00000147  00000-0 -45609-5 0  9997,2 56781  69.9989 157.5064 0003034 270.4066  89.6745 14.98331725 56858,6950.188,96.107,574.161,569.944,0.0
56781.0,STARLINK-5989,PAYLOAD,2024-06-08 08:45:13,14.98331387,0.0003088,69.9987,156.4966,269.6864,90.3941,4.4284e-05,4.35e-06,0.0,0 STARLINK-5989,1 56781U 23078Q   24160.36473757  .00000435  00000-0  44284-4 0  9990,2 56781  69.9987 156.4966 0003088 269.6864  90.3941 14.98331387 57177,6950.189,96.107,574.2,569.907,0.0
56781.0,STARLINK-5989,PAYLOAD,2024-06-08 16:45:53,14.98336307,0.0003064,69.9989,155.6549,270.461,89.6197,-5.475e-05,-7.46e-06,0.0,0 STARLINK-5989,1 56781U 23078Q   24160.69853633 -.00000746  00000-0 -54750-4 0  9997,2 56781  69.9989 155.6549 0003064 270.4610  89.6197 14.98336307 56967,6950.173,96.107,574.168,569.909,0.0
56781.0,STARLINK-5989,PAYLOAD,2024-06-09 08:47:14,14.98330395,0.0003039,69.9991,153.9721,269.3222,90.7589,9.3122e-06,1.8e-07,0.0,0 STARLINK-5989,1 56781U 23078Q   24161.36613835  .00000018  00000-0  93122-5 0  9997,2 56781  69.9991 153.9721 0003039 269.3222  90.7589 14.98330395 57321,6950.192,96.107,574.169,569.945,0.0
56781.0,STARLINK-5989,PAYLOAD,2024-06-10 08:49:15,14.98328435,0.0002983,69.9992,151.4473,268.9513,91.1305,-2.7064e-05,-4.16e-06,0.0,0 STARLINK-5989,1 56781U 23078Q   24162.36754082 -.00000416  00000-0 -27064-4 0  9993,2 56781  69.9992 151.4473 0002983 268.9513  91.1305 14.98328435 57473,6950.198,96.107,574.136,569.989,0.0
56781.0,STARLINK-5989,PAYLOAD,2024-06-10 16:49:55,14.98329164,0.0003032,69.999,150.6054,269.547,90.5341,-1.851e-05,-3.14e-06,0.0,0 STARLINK-5989,1 56781U 23078Q   24162.70134016 -.00000314  00000-0 -18510-4 0  9993,2 56781  69.9990 150.6054 0003032 269.5470  90.5341 14.98329164 57262,6950.195,96.107,574.168,569.953,0.0
56781.0,STARLINK-5989,PAYLOAD,2024-06-11 08:51:16,14.98331574,0.0003054,69.9989,148.9222,269.6362,90.4447,2.8527e-05,2.47e-06,0.0,0 STARLINK-5989,1 56781U 23078Q   24163.36893730  .00000247  00000-0  28527-4 0  9993,2 56781  69.9989 148.9222 0003054 269.6362  90.4447 14.98331574 57367,6950.188,96.107,574.176,569.93,0.0
56781.0,STARLINK-5989,PAYLOAD,2024-06-12 04:04:53,14.9832902,0.0003056,69.9988,146.9022,269.6632,90.4177,2.759e-05,2.36e-06,0.0,0 STARLINK-5989,1 56781U 23078Q   24164.17005879  .00000236  00000-0  27590-4 0  9999,2 56781  69.9988 146.9022 0003056 269.6632  90.4177 14.98329020 57749,6950.196,96.107,574.185,569.937,0.0
56781.0,STARLINK-5989,PAYLOAD,2024-06-12 05:41:01,14.98330247,0.0003065,69.9988,146.7341,269.9163,90.1644,4.0307e-05,3.88e-06,0.0,0 STARLINK-5989,1 56781U 23078Q   24164.23681768  .00000388  00000-0  40307-4 0  9992,2 56781  69.9988 146.7341 0003065 269.9163  90.1644 14.98330247 57494,6950.192,96.107,574.187,569.927,0.0
56781.0,STARLINK-5989,PAYLOAD,2024-06-12 08:53:17,14.98331348,0.0003047,69.9988,146.3973,269.8886,90.1924,5.1308e-05,5.19e-06,0.0,0 STARLINK-5989,1 56781U 23078Q   24164.37033660  .00000519  00000-0  51308-4 0  9998,2 56781  69.9988 146.3973 0003047 269.8886  90.1924 14.98331348 57519,6950.189,96.107,574.171,569.936,0.0
